STARLINK-4251           
1 53083U 22077AS  23141.19379945  .00000988  00000+0  81490-4 0  9995
2 53083  97.6592 322.6517 0003358 103.4736 256.6863 15.01263092 47947
