<?xml version="1.0" encoding="UTF-8"?>
<ndm xmlns:xsi="http://www.w3.org/2001/XMLSchema-instance" xsi:noNamespaceSchemaLocation="http://sanaregistry.org/r/ndmxml/ndmxml-1.0-master.xsd"><omm id="CCSDS_OMM_VERS" version="2.0"><header><COMMENT>GENERATED VIA SPACE-TRACK.ORG API</COMMENT><CREATION_DATE>2023-05-21T06:46:13</CREATION_DATE><ORIGINATOR>18 SPCS</ORIGINATOR></header><body><segment><metadata><OBJECT_NAME>STARLINK-4251</OBJECT_NAME><OBJECT_ID>2022-077AS</OBJECT_ID><CENTER_NAME>EARTH</CENTER_NAME><REF_FRAME>TEME</REF_FRAME><TIME_SYSTEM>UTC</TIME_SYSTEM><MEAN_ELEMENT_THEORY>SGP4</MEAN_ELEMENT_THEORY></metadata><data><meanElements><EPOCH>2023-05-21T04:39:04.272480</EPOCH><MEAN_MOTION>15.01263092</MEAN_MOTION><ECCENTRICITY>0.00033580</ECCENTRICITY><INCLINATION>97.6592</INCLINATION><RA_OF_ASC_NODE>322.6517</RA_OF_ASC_NODE><ARG_OF_PERICENTER>103.4736</ARG_OF_PERICENTER><MEAN_ANOMALY>256.6863</MEAN_ANOMALY></meanElements><tleParameters><EPHEMERIS_TYPE>0</EPHEMERIS_TYPE><CLASSIFICATION_TYPE>U</CLASSIFICATION_TYPE><NORAD_CAT_ID>53083</NORAD_CAT_ID><ELEMENT_SET_NO>999</ELEMENT_SET_NO><REV_AT_EPOCH>4794</REV_AT_EPOCH><BSTAR>0.00008149000000</BSTAR><MEAN_MOTION_DOT>0.00000988</MEAN_MOTION_DOT><MEAN_MOTION_DDOT>0.0000000000000</MEAN_MOTION_DDOT></tleParameters><userDefinedParameters><USER_DEFINED parameter="SEMIMAJOR_AXIS">6941.137</USER_DEFINED><USER_DEFINED parameter="PERIOD">95.919</USER_DEFINED><USER_DEFINED parameter="APOAPSIS">565.333</USER_DEFINED><USER_DEFINED parameter="PERIAPSIS">560.671</USER_DEFINED><USER_DEFINED parameter="OBJECT_TYPE">PAYLOAD</USER_DEFINED><USER_DEFINED parameter="RCS_SIZE">LARGE</USER_DEFINED><USER_DEFINED parameter="COUNTRY_CODE">US</USER_DEFINED><USER_DEFINED parameter="LAUNCH_DATE">2022-07-11</USER_DEFINED><USER_DEFINED parameter="SITE">AFWTR</USER_DEFINED><USER_DEFINED parameter="DECAY_DATE"/><USER_DEFINED parameter="FILE">3913313</USER_DEFINED><USER_DEFINED parameter="GP_ID">232217136</USER_DEFINED></userDefinedParameters></data></segment></body></omm></ndm>